{
    "links": {
        "self": "http://www.neowsapp.com/rest/v1/neo/3786455?api_key=iIulBulltgU6a56xZRHN4H3l9WmuAYTsLGpBGhQ2"
    },
    "id": "3786455",
    "neo_reference_id": "3786455",
    "name": "(2017 UH)",
    "designation": "2017 UH",
    "nasa_jpl_url": "http://ssd.jpl.nasa.gov/sbdb.cgi?sstr=3786455",
    "absolute_magnitude_h": 26.2,
    "estimated_diameter": {
        "kilometers": {
            "estimated_diameter_min": 0.0152951935,
            "estimated_diameter_max": 0.0342010925
        },
        "meters": {
            "estimated_diameter_min": 15.2951935344,
            "estimated_diameter_max": 34.201092472
        },
        "miles": {
            "estimated_diameter_min": 0.0095039897,
            "estimated_diameter_max": 0.021251567
        },
        "feet": {
            "estimated_diameter_min": 50.1810827555,
            "estimated_diameter_max": 112.2083122258
        }
    },
    "is_potentially_hazardous_asteroid": false,
    "close_approach_data": [
        {
            "close_approach_date": "2017-10-25",
            "close_approach_date_full": "2017-Oct-25 16:22",
            "epoch_date_close_approach": 1508948520000,
            "relative_velocity": {
                "kilometers_per_second": "10.9584328046",
                "kilometers_per_hour": "39450.3580963836",
                "miles_per_hour": "24512.9183405001"
            },
            "miss_distance": {
                "astronomical": "0.0386608831",
                "lunar": "15.0390835259",
                "kilometers": "5783585.764078997",
                "miles": "3593753.5492322786"
            },
            "orbiting_body": "Earth"
        }
    ],
    "orbital_data": {
        "orbit_id": "4",
        "orbit_determination_date": "2017-10-28 06:43:07",
        "first_observation_date": "2017-10-16",
        "last_observation_date": "2017-10-26",
        "data_arc_in_days": 10,
        "observations_used": 23,
        "orbit_uncertainty": "8",
        "minimum_orbit_intersection": ".0356676",
        "jupiter_tisserand_invariant": "4.062",
        "epoch_osculation": "2458045.5",
        "eccentricity": ".4562268493821508",
        "semi_major_axis": "1.698866483199431",
        "inclination": "10.82725145847521",
        "ascending_node_longitude": "25.36677251776797",
        "orbital_period": "808.7928425198423",
        "perihelion_distance": ".9237979800484201",
        "perihelion_argument": "53.24974106927004",
        "aphelion_distance": "2.473934986350443",
        "perihelion_time": "2458088.456161775658",
        "mean_anomaly": "340.8798774837607",
        "mean_motion": ".4451077965507194",
        "equinox": "J2000",
        "orbit_class": {
            "orbit_class_type": "APO",
            "orbit_class_description": "Near-Earth asteroid orbits which cross the Earth’s orbit similar to that of 1862 Apollo",
            "orbit_class_range": "a (semi-major axis) > 1.0 AU; q (perihelion) < 1.017 AU"
        }
    },
    "is_sentry_object": false
}